{
  "norad_id": 49101,
  "name": "ONEWEB-0315",
  "history": [
    {
      "epoch": "2026-03-28T18:40:44.585184Z",
      "apogee_km": 1214.7970612228146,
      "perigee_km": 1212.648109448589,
      "latitude_deg": -3.7913030108887274e-05,
      "longitude_deg": -99.77193024500922,
      "height_km": 1216.432655985402,
      "semi_major_axis_km": 7591.859585335701,
      "eccentricity": 0.00014153,
      "inclination_deg": 87.9017,
      "raan_deg": 6.6077,
      "arg_perigee_deg": 80.4425,
      "mean_anomaly_deg": 279.6863,
      "mean_motion_rev_day": 13.12443183
    },
    {
      "epoch": "2026-03-29T03:49:39.080640Z",
      "apogee_km": 1214.7945591438838,
      "perigee_km": 1212.6490998386698,
      "latitude_deg": 8.131337799191568e-05,
      "longitude_deg": 122.54979534393826,
      "height_km": 1216.435075405038,
      "semi_major_axis_km": 7591.858829491277,
      "eccentricity": 0.0001413,
      "inclination_deg": 87.9017,
      "raan_deg": 6.5322,
      "arg_perigee_deg": 80.5995,
      "mean_anomaly_deg": 279.5294,
      "mean_motion_rev_day": 13.12443379
    },
    {
      "epoch": "2026-03-29T05:39:25.958304Z",
      "apogee_km": 1214.7889624689087,
      "perigee_km": 1212.6530691347434,
      "latitude_deg": -4.6352172433930476e-05,
      "longitude_deg": 95.01422450287491,
      "height_km": 1216.4343632752627,
      "semi_major_axis_km": 7591.858015801826,
      "eccentricity": 0.00014067,
      "inclination_deg": 87.9017,
      "raan_deg": 6.5171,
      "arg_perigee_deg": 80.5609,
      "mean_anomaly_deg": 279.5678,
      "mean_motion_rev_day": 13.1244359
    },
    {
      "epoch": "2026-03-30T10:55:56.296416Z",
      "apogee_km": 1214.7756760971897,
      "perigee_km": 1212.6648361057032,
      "latitude_deg": 1.5941780137775813e-05,
      "longitude_deg": 14.443833502554899,
      "height_km": 1216.4456245800586,
      "semi_major_axis_km": 7591.857256101446,
      "eccentricity": 0.00013902,
      "inclination_deg": 87.9017,
      "raan_deg": 6.2754,
      "arg_perigee_deg": 81.108,
      "mean_anomaly_deg": 279.0206,
      "mean_motion_rev_day": 13.12443787
    },
    {
      "epoch": "2026-03-30T18:15:03.865824Z",
      "apogee_km": 1214.7860956048717,
      "perigee_km": 1212.6529357610953,
      "latitude_deg": 3.910270967851221e-06,
      "longitude_deg": -95.69887695761604,
      "height_km": 1216.4217362582174,
      "semi_major_axis_km": 7591.856515682984,
      "eccentricity": 0.00014049,
      "inclination_deg": 87.9019,
      "raan_deg": 6.2148,
      "arg_perigee_deg": 79.9422,
      "mean_anomaly_deg": 280.1865,
      "mean_motion_rev_day": 13.12443979
    },
    {
      "epoch": "2026-03-31T07:03:32.099328Z",
      "apogee_km": 1214.772015738191,
      "perigee_km": 1212.664516716287,
      "latitude_deg": 5.1446211080272e-05,
      "longitude_deg": 71.55188645826644,
      "height_km": 1216.4395686888893,
      "semi_major_axis_km": 7591.855266227239,
      "eccentricity": 0.0001388,
      "inclination_deg": 87.9018,
      "raan_deg": 6.1092,
      "arg_perigee_deg": 80.8699,
      "mean_anomaly_deg": 279.2587,
      "mean_motion_rev_day": 13.12444303
    },
    {
      "epoch": "2026-04-01T06:50:41.591040Z",
      "apogee_km": 1214.7793544146452,
      "perigee_km": 1212.6505991203594,
      "latitude_deg": 2.4833139445675727e-05,
      "longitude_deg": 73.58908295713641,
      "height_km": 1216.4651512607322,
      "semi_major_axis_km": 7591.8519767675025,
      "eccentricity": 0.0001402,
      "inclination_deg": 87.902,
      "raan_deg": 5.9128,
      "arg_perigee_deg": 82.5335,
      "mean_anomaly_deg": 277.5953,
      "mean_motion_rev_day": 13.12445156
    },
    {
      "epoch": "2026-04-02T17:36:32.277024Z",
      "apogee_km": 1214.801790140551,
      "perigee_km": 1212.6255102331688,
      "latitude_deg": -5.958246589626937e-05,
      "longitude_deg": -89.58692033716588,
      "height_km": 1216.475689746114,
      "semi_major_axis_km": 7591.85065018686,
      "eccentricity": 0.00014333,
      "inclination_deg": 87.902,
      "raan_deg": 5.6257,
      "arg_perigee_deg": 83.3291,
      "mean_anomaly_deg": 276.8,
      "mean_motion_rev_day": 13.124455
    },
    {
      "epoch": "2026-04-03T19:13:28.419168Z",
      "apogee_km": 1214.785398414825,
      "perigee_km": 1212.6384235428004,
      "latitude_deg": 3.0328212315928986e-05,
      "longitude_deg": -115.08433764145009,
      "height_km": 1216.493840161856,
      "semi_major_axis_km": 7591.8489109788125,
      "eccentricity": 0.0001414,
      "inclination_deg": 87.9017,
      "raan_deg": 5.4142,
      "arg_perigee_deg": 84.3046,
      "mean_anomaly_deg": 275.8244,
      "mean_motion_rev_day": 13.12445951
    },
    {
      "epoch": "2026-04-04T06:12:09.584064Z",
      "apogee_km": 1214.788799296408,
      "perigee_km": 1212.6321072718792,
      "latitude_deg": -5.932453784102706e-05,
      "longitude_deg": 79.7026838273618,
      "height_km": 1216.5030759111075,
      "semi_major_axis_km": 7591.847453284143,
      "eccentricity": 0.00014204,
      "inclination_deg": 87.9017,
      "raan_deg": 5.3236,
      "arg_perigee_deg": 84.9009,
      "mean_anomaly_deg": 275.2281,
      "mean_motion_rev_day": 13.12446329
    },
    {
      "epoch": "2026-04-05T11:28:39.649152Z",
      "apogee_km": 1214.8107611983423,
      "perigee_km": 1212.6258252449534,
      "latitude_deg": 3.9844600986608005e-06,
      "longitude_deg": -0.8664688974801419,
      "height_km": 1216.5298443077852,
      "semi_major_axis_km": 7591.855293221647,
      "eccentricity": 0.0001439,
      "inclination_deg": 87.9016,
      "raan_deg": 5.082,
      "arg_perigee_deg": 85.9652,
      "mean_anomaly_deg": 274.1641,
      "mean_motion_rev_day": 13.12444296
    },
    {
      "epoch": "2026-04-05T16:58:00.359904Z",
      "apogee_km": 1214.8261981087553,
      "perigee_km": 1212.616967261194,
      "latitude_deg": -8.01870574414606e-05,
      "longitude_deg": -83.47349594051786,
      "height_km": 1216.5331206004207,
      "semi_major_axis_km": 7591.858582684975,
      "eccentricity": 0.0001455,
      "inclination_deg": 87.9016,
      "raan_deg": 5.0367,
      "arg_perigee_deg": 86.0098,
      "mean_anomaly_deg": 274.1196,
      "mean_motion_rev_day": 13.12443443
    },
    {
      "epoch": "2026-04-06T03:56:41.612064Z",
      "apogee_km": 1214.8350509476786,
      "perigee_km": 1212.6082069746317,
      "latitude_deg": -2.3621449603519877e-05,
      "longitude_deg": 111.31316559105537,
      "height_km": 1216.543616824946,
      "semi_major_axis_km": 7591.858628961155,
      "eccentricity": 0.00014666,
      "inclination_deg": 87.9019,
      "raan_deg": 4.9461,
      "arg_perigee_deg": 86.5816,
      "mean_anomaly_deg": 273.548,
      "mean_motion_rev_day": 13.12443431
    },
    {
      "epoch": "2026-04-07T05:33:38.035008Z",
      "apogee_km": 1214.84503676826,
      "perigee_km": 1212.605741038028,
      "latitude_deg": 7.620747390603271e-05,
      "longitude_deg": 85.81447256707202,
      "height_km": 1216.5549927591658,
      "semi_major_axis_km": 7591.862388903143,
      "eccentricity": 0.00014748,
      "inclination_deg": 87.9014,
      "raan_deg": 4.7345,
      "arg_perigee_deg": 86.9927,
      "mean_anomaly_deg": 273.1371,
      "mean_motion_rev_day": 13.12442456
    },
    {
      "epoch": "2026-04-07T18:22:06.337632Z",
      "apogee_km": 1214.8473002258324,
      "perigee_km": 1212.6122546465558,
      "latitude_deg": 3.4173090301949457e-06,
      "longitude_deg": -106.93535944669436,
      "height_km": 1216.5653072271596,
      "semi_major_axis_km": 7591.866777436194,
      "eccentricity": 0.0001472,
      "inclination_deg": 87.9015,
      "raan_deg": 4.6286,
      "arg_perigee_deg": 87.2904,
      "mean_anomaly_deg": 272.8393,
      "mean_motion_rev_day": 13.12441318
    },
    {
      "epoch": "2026-04-08T10:50:08.418048Z",
      "apogee_km": 1214.853306734365,
      "perigee_km": 1212.6064178178067,
      "latitude_deg": 1.2277689472057749e-05,
      "longitude_deg": 5.243884690850007,
      "height_km": 1216.5677606465736,
      "semi_major_axis_km": 7591.866862276086,
      "eccentricity": 0.00014798,
      "inclination_deg": 87.9014,
      "raan_deg": 4.4928,
      "arg_perigee_deg": 87.4264,
      "mean_anomaly_deg": 272.7034,
      "mean_motion_rev_day": 13.12441296
    }
  ]
}